STARLINK-4553           
1 53577U 22101BC  23272.93238955 -.00002104  00000+0 -11415-3 0  9996
2 53577  53.2156  97.1282 0001386 111.4878 248.6262 15.08837223 62645
STARLINK-4556           
1 53578U 22101BD  23273.78245743 -.00000359  00000+0 -44488-5 0  9992
2 53578  53.2155  93.1942 0001258  86.6921 273.4215 15.08840685 61957
STARLINK-4580           
1 53579U 22101BE  23273.77877096  .00000214  00000+0  31505-4 0  9997
2 53579  53.2174  93.1663 0001282  91.3856 268.7283 15.08842624 61953
CHUANGXIN 16A (CX-16A)  
1 53586U 22102A   23273.41500339  .00002732  00000+0  22168-3 0  9991
2 53586  28.9978 296.9728 0006471  61.1932 298.9314 14.96661149 60374
BEIJING-3B              
1 53587U 22103A   23273.76451547  .00002596  00000+0  29096-3 0  9992
2 53587  97.8974 346.4164 0018657  42.0101 318.2542 14.87587285 59865
STARLINK-4691           
1 53588U 22104A   23273.44488543  .00002928  00000+0  20195-3 0  9995
2 53588  53.2162 285.3208 0001443  97.0515 263.0642 15.08843976 60377
STARLINK-4673           
1 53589U 22104B   23273.75767101  .00001118  00000+0  88305-4 0  9998
2 53589  53.2174 283.7198 0001549  94.6722 265.4447 15.08840647 60428
STARLINK-4689           
1 53590U 22104C   23272.97752513  .00001837  00000+0  13345-3 0  9993
2 53590  53.2167 287.3819 0001496  95.3912 264.7251 15.08845534 61349
STARLINK-4674           
1 53591U 22104D   23273.76872672  .00000216  00000+0  31661-4 0  9993
2 53591  53.2167 283.7897 0001594  86.4636 273.6539 15.08835759 60423
STARLINK-4672           
1 53592U 22104E   23273.30231009  .00001807  00000+0  13157-3 0  9993
2 53592  53.2163 285.8549 0001408  98.7774 261.3378 15.08849073 60351
STARLINK-4671           
1 53593U 22104F   23273.76135303  .00001494  00000+0  11196-3 0  9997
2 53593  53.2165 283.7447 0001404 100.5873 259.5277 15.08842006 60420
STARLINK-4681           
1 53594U 22104G   23273.22037420  .00002144  00000+0  15271-3 0  9991
2 53594  53.2155 286.0523 0001559 111.4068 248.7090 15.08849631 61503
STARLINK-4684           
1 53595U 22104H   23273.75398272  .00001030  00000+0  82760-4 0  9996
2 53595  53.2170 283.7019 0001494  95.4672 264.6490 15.08845567 60835
STARLINK-4668           
1 53596U 22104J   23273.21301250 -.00000229  00000+0  36682-5 0  9991
2 53596  53.2153 286.0021 0001236  77.7298 282.3832 15.08830908 61030
STARLINK-4682           
1 53597U 22104K   23273.74661683  .00001645  00000+0  12142-3 0  9994
2 53597  53.2183 283.6498 0001738  78.7454 281.3733 15.08839437 60424
STARLINK-4676           
1 53598U 22104L   23273.91667824  .00056824  00000+0  35622-2 0  9993
2 53598  53.2139 283.0132 0001662  90.3229  48.7376 15.08815792 60449
STARLINK-4677           
1 53600U 22104N   23273.72818806  .00000526  00000+0  51110-4 0  9994
2 53600  53.2145 283.5413 0001494  88.4436 271.6727 15.08841845 60836
STARLINK-4675           
1 53601U 22104P   23273.34181480  .00001173  00000+0  91818-4 0  9992
2 53601  53.2149 285.3929 0001494  93.9011 266.2152 15.08832660 60368
STARLINK-4648           
1 53602U 22104Q   23273.74523694 -.00000167  00000+0  76296-5 0  9991
2 53602  53.2152 278.6674 0001500  87.0598 273.0565 15.08837413 60496
STARLINK-4692           
1 53603U 22104R   23273.23741980  .00002400  00000+0  16881-3 0  9999
2 53603  53.2155 281.1788 0001451  85.4375 274.6782 15.08845417 61105
STARLINK-4690           
1 53604U 22104S   23273.40666280  .00003801  00000+0  25669-3 0  9998
2 53604  53.2161 280.1011 0001584  97.7560 262.3612 15.08849088 60440
STARLINK-4693           
1 53605U 22104T   23273.73187138  .00000876  00000+0  73125-4 0  9995
2 53605  53.2154 283.5647 0001339  93.3179 266.7966 15.08844841 60421
STARLINK-4590           
1 53606U 22104U   23273.43106799  .00005887  00000+0  38747-3 0  9994
2 53606  53.2150 275.2477 0001466  89.3494 270.7666 15.08859139 60511
STARLINK-4591           
1 53607U 22104V   23273.75628831  .00001298  00000+0  99636-4 0  9993
2 53607  53.2145 278.7301 0001369  94.5289 265.5860 15.08843333 60496
STARLINK-4647           
1 53608U 22104W   23273.17348377  .00002840  00000+0  19642-3 0  9996
2 53608  53.2160 276.4844 0001346  93.8545 266.2601 15.08840498 61045
STARLINK-4660           
1 53609U 22104X   23273.72312803  .00001186  00000+0  92597-4 0  9996
2 53609  53.2174 278.5248 0001531 105.8697 254.2464 15.08837003 60490
STARLINK-4610           
1 53610U 22104Y   23273.69699233  .00000903  00000+0  74812-4 0  9995
2 53610  53.2151 274.0653 0001239  86.0288 274.0846 15.08840991 60550
STARLINK-4650           
1 53611U 22104Z   23273.17717011  .00001311  00000+0  10045-3 0  9995
2 53611  53.2166 276.5084 0001901  87.0906 273.0303 15.08847180 61168
STARLINK-4658           
1 53612U 22104AA  23273.22866912  .00002666  00000+0  18551-3 0  9991
2 53612  53.2161 276.1146 0001756 110.2555 249.8626 15.08845793 61051
STARLINK-4655           
1 53613U 22104AB  23273.23604488  .00000542  00000+0  52126-4 0  9999
2 53613  53.2155 276.1630 0001348  93.5958 266.5188 15.08835449 61056
STARLINK-4605           
1 53616U 22104AE  23273.68956873 -.00000019  00000+0  16904-4 0  9993
2 53616  53.2166 263.8477 0001632  82.6452 277.4725 15.08839125 60699
STARLINK-4601           
1 53617U 22104AF  23273.42369807  .00002488  00000+0  17430-3 0  9996
2 53617  53.2156 275.2024 0001701  94.8288 265.2898 15.08851081 60515
STARLINK-4604           
1 53618U 22104AG  23273.74385074  .00000408  00000+0  43724-4 0  9992
2 53618  53.2178 273.6411 0001572 113.0496 247.0662 15.08840524 60554
STARLINK-4609           
1 53619U 22104AH  23273.22129827  .00002445  00000+0  17160-3 0  9995
2 53619  53.2158 276.0724 0001550  80.3064 279.8103 15.08848317 61057
STARLINK-4615           
1 53620U 22104AJ  23273.27280282  .00001668  00000+0  12284-3 0  9993
2 53620  53.2169 275.6851 0001460  91.6337 268.4822 15.08840043 60492
STARLINK-4608           
1 53621U 22104AK  23273.21760462 -.00001778  00000+0 -93602-4 0  9999
2 53621  53.2171 276.0504 0001634  60.3567 299.7587 15.08861171 61050
STARLINK-4568           
1 53622U 22104AL  23273.71437584  .00001680  00000+0  12364-3 0  9996
2 53622  53.2169 273.4686 0001293  87.6535 272.4605 15.08840829 60569
STARLINK-4573           
1 53623U 22104AM  23273.40896236  .00002205  00000+0  15653-3 0  9994
2 53623  53.2163 275.1105 0001474  91.9699 268.1462 15.08846944 60511
STARLINK-4596           
1 53624U 22104AN  23273.72911408  .00001922  00000+0  13881-3 0  9995
2 53624  53.2172 273.5583 0001599  90.2084 269.9092 15.08840129 60564
STARLINK-4603           
1 53625U 22104AP  23273.40158997 -.00000050  00000+0  14922-4 0  9997
2 53625  53.2160 275.0683 0001247 101.5831 258.5301 15.08841838 60516
STARLINK-4554           
1 53626U 22104AQ  23273.71806022  .00000133  00000+0  26443-4 0  9993
2 53626  53.2145 273.4878 0001568  95.3478 264.7692 15.08838272 60566
STARLINK-4595           
1 53627U 22104AR  23273.72542956  .00000402  00000+0  43366-4 0  9990
2 53627  53.2165 273.5339 0001532  83.9302 276.1865 15.08840026 60561
STARLINK-4600           
1 53628U 22104AS  23273.71068795  .00002385  00000+0  16788-3 0  9993
2 53628  53.2151 273.4438 0001588  87.3871 272.7303 15.08845125 60560
STARLINK-4602           
1 53629U 22104AT  23273.72174870  .00000889  00000+0  73926-4 0  9992
2 53629  53.2169 273.5094 0001535  93.1119 267.0049 15.08837065 60569
STARLINK-4598           
1 53630U 22104AU  23273.22686875  .00001795  00000+0  13081-3 0  9994
2 53630  53.2169 266.1295 0001415 101.9154 258.1996 15.08841845 61481
STARLINK-4599           
1 53631U 22104AV  23273.19856446  .00001693  00000+0  12981-3 0  9999
2 53631  53.2164 275.9277 0001402  92.5232 267.5920 15.07211257 61177
STARLINK-4606           
1 53632U 22104AW  23273.21853751  .00002606  00000+0  18173-3 0  9993
2 53632  53.2149 266.0714 0001504 107.2138 252.9019 15.08845377 61646
STARLINK-4593           
1 53633U 22104AX  23273.22222331  .00001679  00000+0  12355-3 0  9994
2 53633  53.2160 266.0883 0001311  80.3872 279.7268 15.08842606 61318
STARLINK-4592           
1 53634U 22104AY  23273.40988432  .00000575  00000+0  54214-4 0  9991
2 53634  53.2167 265.1330 0001620 109.2893 250.8275 15.08842617 60656
STARLINK-4587           
1 53635U 22104AZ  23273.67853058  .00001316  00000+0  10074-3 0  9995
2 53635  53.2155 263.9646 0001569  78.9099 281.2069 15.08845811 60694
STARLINK-4586           
1 53636U 22104BA  23273.66748232  .00000944  00000+0  77395-4 0  9998
2 53636  53.2169 263.9012 0001676  93.6361 266.4823 15.08837778 60698
STARLINK-4396           
1 53637U 22104BB  23273.67116360  .00001623  00000+0  12002-3 0  9999
2 53637  53.2149 263.9226 0001445  78.2968 281.8186 15.08845120 60693
STARLINK-4594           
1 53638U 22104BC  23273.71529680  .00000205  00000+0  30965-4 0  9992
2 53638  53.2166 263.4869 0001549 122.2302 237.8840 15.08839325 60708
STARLINK-4422           
1 53639U 22104BD  23273.20011225  .00004338  00000+0  29042-3 0  9992
2 53639  53.2148 265.9556 0001683 113.7857 246.3312 15.08848660 61474
STARLINK-4597           
1 53640U 22104BE  23273.19642820  .00002160  00000+0  15375-3 0  9998
2 53640  53.2168 265.9409 0001306  86.4333 273.6808 15.08842251 61644
STARLINK-4588           
1 53641U 22104BF  23273.20475736  .00005099  00000+0  33816-3 0  9995
2 53641  53.2148 265.9853 0001433 100.6592 259.4562 15.08850226 61643
STARLINK-4622           
1 53648U 22105A   23273.63607819  .00000006  00000+0  50667-5 0  9997
2 53648  97.6545 153.1903 0000762 113.6668 246.4636 15.01256926 59846
STARLINK-4386           
1 53649U 22105B   23273.63421787  .00001784  00000+0  14344-3 0  9990
2 53649  97.6556 153.1881 0000582 116.3932 243.7352 15.01265282 59826
STARLINK-4380           
1 53650U 22105C   23273.23245580  .00002859  00000+0  22703-3 0  9995
2 53650  97.6551 152.7928 0001287  77.2577 282.8791 15.01266908 59482
